[{"OBJECT_NAME":"STARLINK-2063","OBJECT_ID":"2021-041A","EPOCH":"2026-03-09T11:01:03.305856","MEAN_MOTION":15.30192431,"ECCENTRICITY":0.0001102,"INCLINATION":53.1586,"RA_OF_ASC_NODE":127.8795,"ARG_OF_PERICENTER":102.8101,"MEAN_ANOMALY":257.3023,"EPHEMERIS_TYPE":0,"CLASSIFICATION_TYPE":"U","NORAD_CAT_ID":48553,"ELEMENT_SET_NO":999,"REV_AT_EPOCH":26524,"BSTAR":1.4128588e-5,"MEAN_MOTION_DOT":5.9e-7,"MEAN_MOTION_DDOT":0},{"OBJECT_NAME":"CSTP 1.2 (STC 1.2)","OBJECT_ID":"2023-091W","EPOCH":"2026-03-09T23:12:27.821952","MEAN_MOTION":15.2718076,"ECCENTRICITY":0.00204388,"INCLINATION":97.5258,"RA_OF_ASC_NODE":134.3262,"ARG_OF_PERICENTER":84.9592,"MEAN_ANOMALY":275.3979,"EPHEMERIS_TYPE":0,"CLASSIFICATION_TYPE":"U","NORAD_CAT_ID":57186,"ELEMENT_SET_NO":999,"REV_AT_EPOCH":14930,"BSTAR":0.00043035718,"MEAN_MOTION_DOT":0.00011466,"MEAN_MOTION_DDOT":0}]
